NORAD_CAT_ID,OBJECT_NAME,OBJECT_TYPE,EPOCH,MEAN_MOTION,ECCENTRICITY,INCLINATION,RA_OF_ASC_NODE,ARG_OF_PERICENTER,MEAN_ANOMALY,BSTAR,MEAN_MOTION_DOT,MEAN_MOTION_DDOT,TLE_LINE0,TLE_LINE1,TLE_LINE2,SEMIMAJOR_AXIS,PERIOD,APOGEE,PERIGEE,DECAYED
55774.0,STARLINK-5812,PAYLOAD,2023-12-10 19:21:49,14.98327954,0.0003229,69.9988,131.6312,271.5199,88.559,-9.3894e-05,-1.213e-05,0.0,0 STARLINK-5812,1 55774U 23028AK  23344.80682862 -.00001213  00000-0 -93894-4 0  9995,2 55774  69.9988 131.6312 0003229 271.5199  88.5590 14.98327954 43729,6950.199,96.107,574.308,569.82,0.0
55774.0,STARLINK-5812,PAYLOAD,2023-12-11 14:35:26,14.98329412,0.0003213,69.9991,129.6119,269.4485,90.6306,-6.6182e-05,-8.83e-06,0.0,0 STARLINK-5812,1 55774U 23028AK  23345.60794670 -.00000883  00000-0 -66182-4 0  9997,2 55774  69.9991 129.6119 0003213 269.4485  90.6306 14.98329412 43845,6950.195,96.107,574.293,569.827,0.0
55774.0,STARLINK-5812,PAYLOAD,2023-12-11 19:23:50,14.98331384,0.0003067,69.9993,129.1072,265.4654,94.6154,-3.8369e-05,-5.51e-06,0.0,0 STARLINK-5812,1 55774U 23028AK  23345.80822439 -.00000551  00000-0 -38369-4 0  9992,2 55774  69.9993 129.1072 0003067 265.4654  94.6154 14.98331384 43870,6950.189,96.107,574.185,569.922,0.0
55774.0,STARLINK-5812,PAYLOAD,2023-12-12 13:01:19,14.98325068,0.0003034,69.9994,127.2558,264.739,95.3423,5.1427e-05,5.21e-06,0.0,0 STARLINK-5812,1 55774U 23028AK  23346.54258624  .00000521  00000-0  51427-4 0  9998,2 55774  69.9994 127.2558 0003034 264.7390  95.3423 14.98325068 43983,6950.208,96.107,574.182,569.964,0.0
55774.0,STARLINK-5812,PAYLOAD,2023-12-12 19:25:51,14.98326261,0.0003024,69.9994,126.5825,264.7406,95.3408,6.0849e-05,6.33e-06,0.0,0 STARLINK-5812,1 55774U 23028AK  23346.80962592  .00000633  00000-0  60849-4 0  9995,2 55774  69.9994 126.5825 0003024 264.7406  95.3408 14.98326261 44024,6950.204,96.107,574.171,569.968,0.0
55774.0,STARLINK-5812,PAYLOAD,2023-12-13 11:27:13,14.98316794,0.0002778,70.0001,124.9014,256.2083,103.8767,-9.53e-05,-1.229e-05,0.0,0 STARLINK-5812,1 55774U 23028AK  23347.47723964 -.00001229  00000-0 -95300-4 0  9991,2 55774  70.0001 124.9014 0002778 256.2083 103.8767 14.98316794 44124,6950.234,96.108,574.03,570.168,0.0
55774.0,STARLINK-5812,PAYLOAD,2023-12-13 14:39:29,14.98314665,0.0003293,69.9989,124.564,267.5086,92.5696,-0.00014755,-1.852e-05,0.0,0 STARLINK-5812,1 55774U 23028AK  23347.61076386 -.00001852  00000-0 -14755-3 0  9992,2 55774  69.9989 124.5640 0003293 267.5086  92.5696 14.98314665 44140,6950.24,96.108,574.394,569.817,0.0
55774.0,STARLINK-5812,PAYLOAD,2023-12-13 19:27:54,14.98307498,0.0003022,69.9996,124.0591,263.715,96.3664,-0.00020649,-2.554e-05,0.0,0 STARLINK-5812,1 55774U 23028AK  23347.81105253 -.00002554  00000-0 -20649-3 0  9999,2 55774  69.9996 124.0591 0003022 263.7150  96.3664 14.98307498 44174,6950.262,96.108,574.228,570.027,0.0
55774.0,STARLINK-5812,PAYLOAD,2023-12-14 11:29:15,14.98318914,0.0003713,69.9982,122.3726,279.3569,80.717,-9.6336e-05,-1.242e-05,0.0,0 STARLINK-5812,1 55774U 23028AK  23348.47864891 -.00001242  00000-0 -96336-4 0  9992,2 55774  69.9982 122.3726 0003713 279.3569  80.7170 14.98318914 44279,6950.227,96.108,574.673,569.512,0.0
55774.0,STARLINK-5812,PAYLOAD,2023-12-14 13:05:23,14.98318908,0.0003732,69.9982,122.2042,279.7456,80.3282,-9.322e-05,-1.205e-05,0.0,0 STARLINK-5812,1 55774U 23028AK  23348.54540941 -.00001205  00000-0 -93220-4 0  9995,2 55774  69.9982 122.2042 0003732 279.7456  80.3282 14.98318908 44283,6950.227,96.108,574.686,569.498,0.0
55774.0,STARLINK-5812,PAYLOAD,2023-12-14 19:29:55,14.98322094,0.0002923,70.0,121.5324,270.8229,89.2595,-2.5419e-06,-1.23e-06,0.0,0 STARLINK-5812,1 55774U 23028AK  23348.81244676 -.00000123  00000-0 -25419-5 0  9995,2 55774  70.0000 121.5324 0002923 270.8229  89.2595 14.98322094 44324,6950.217,96.108,574.114,570.051,0.0
55774.0,STARLINK-5812,PAYLOAD,2023-12-15 11:31:15,14.9832288,0.0003352,69.9991,119.8487,273.2117,86.8658,0.00023175,2.673e-05,0.0,0 STARLINK-5812,1 55774U 23028AK  23349.48004091  .00002673  00000-0  23175-3 0  9999,2 55774  69.9991 119.8487 0003352 273.2117  86.8658 14.98322880 44427,6950.215,96.107,574.41,569.75,0.0
55774.0,STARLINK-5812,PAYLOAD,2023-12-15 14:43:31,14.98324577,0.0003057,69.9999,119.5135,265.9015,94.1795,0.00026342,3.051e-05,0.0,0 STARLINK-5812,1 55774U 23028AK  23349.61355983  .00003051  00000-0  26342-3 0  9993,2 55774  69.9999 119.5135 0003057 265.9015  94.1795 14.98324577 44440,6950.21,96.107,574.199,569.95,0.0
55774.0,STARLINK-5812,PAYLOAD,2023-12-15 17:55:47,14.98325325,0.0002831,70.0005,119.1772,257.6149,102.4693,0.00027854,3.232e-05,0.0,0 STARLINK-5812,1 55774U 23028AK  23349.74707848  .00003232  00000-0  27854-3 0  9998,2 55774  70.0005 119.1772 0002831 257.6149 102.4693 14.98325325 44463,6950.207,96.107,574.04,570.105,0.0
55774.0,STARLINK-5812,PAYLOAD,2023-12-16 11:33:15,14.98337233,0.0002858,70.0004,117.3257,253.7477,106.3368,0.00014053,1.584e-05,0.0,0 STARLINK-5812,1 55774U 23028AK  23350.48143291  .00001584  00000-0  14053-3 0  9992,2 55774  70.0004 117.3257 0002858 253.7477 106.3368 14.98337233 44575,6950.171,96.107,574.022,570.049,0.0
55774.0,STARLINK-5812,PAYLOAD,2023-12-16 13:09:23,14.98337051,0.0002871,70.0004,117.1574,253.9166,106.1677,0.00013536,1.523e-05,0.0,0 STARLINK-5812,1 55774U 23028AK  23350.54819281  .00001523  00000-0  13536-3 0  9996,2 55774  70.0004 117.1574 0002871 253.9166 106.1677 14.98337051 44587,6950.171,96.107,574.031,570.041,0.0
55774.0,STARLINK-5812,PAYLOAD,2023-12-16 17:57:47,14.98337767,0.0002914,70.0003,116.6522,259.4919,100.5912,0.00011516,1.282e-05,0.0,0 STARLINK-5812,1 55774U 23028AK  23350.74847200  .00001282  00000-0  11516-3 0  9998,2 55774  70.0003 116.6522 0002914 259.4919 100.5912 14.98337767 44616,6950.169,96.107,574.059,570.009,0.0
55774.0,STARLINK-5812,PAYLOAD,2023-12-17 14:47:32,14.98337411,0.0002782,70.0006,114.4643,252.5613,107.5242,-5.991e-05,-8.08e-06,0.0,0 STARLINK-5812,1 55774U 23028AK  23351.61635155 -.00000808  00000-0 -59910-4 0  9995,2 55774  70.0006 114.4643 0002782 252.5613 107.5242 14.98337411 44740,6950.17,96.107,573.969,570.101,0.0
55774.0,STARLINK-5812,PAYLOAD,2023-12-17 17:59:48,14.98338554,0.0002706,70.0008,114.1268,247.258,112.8294,-2.2378e-05,-3.6e-06,0.0,0 STARLINK-5812,1 55774U 23028AK  23351.74986897 -.00000360  00000-0 -22378-4 0  9992,2 55774  70.0008 114.1268 0002706 247.2580 112.8294 14.98338554 44769,6950.166,96.106,573.912,570.151,0.0
55774.0,STARLINK-5812,PAYLOAD,2023-12-18 14:49:32,14.98341129,0.0002844,70.0006,111.9391,256.4629,103.6213,-1.5498e-05,-2.78e-06,0.0,0 STARLINK-5812,1 55774U 23028AK  23352.61773993 -.00000278  00000-0 -15498-4 0  9993,2 55774  70.0006 111.9391 0002844 256.4629 103.6213 14.98341129 44893,6950.158,96.106,574.0,570.047,0.0
55774.0,STARLINK-5812,PAYLOAD,2023-12-18 18:01:48,14.98342246,0.0002836,70.0007,111.6028,256.2791,103.8052,-2.6126e-06,-1.24e-06,0.0,0 STARLINK-5812,1 55774U 23028AK  23352.75125783 -.00000124  00000-0 -26126-5 0  9997,2 55774  70.0007 111.6028 0002836 256.2791 103.8052 14.98342246 44914,6950.155,96.106,573.991,570.049,0.0
55774.0,STARLINK-5812,PAYLOAD,2023-12-19 11:39:18,14.98326897,0.0002772,70.0012,109.7528,247.0723,113.0143,-8.5641e-05,-1.115e-05,0.0,0 STARLINK-5812,1 55774U 23028AK  23353.48562745 -.00001115  00000-0 -85641-4 0  9998,2 55774  70.0012 109.7528 0002772 247.0723 113.0143 14.98326897 45026,6950.202,96.107,573.994,570.141,0.0
55774.0,STARLINK-5812,PAYLOAD,2023-12-19 14:51:34,14.98325895,0.000268,70.0015,109.4167,240.9203,119.1688,-7.3067e-05,-9.65e-06,0.0,0 STARLINK-5812,1 55774U 23028AK  23353.61914779 -.00000965  00000-0 -73067-4 0  9992,2 55774  70.0015 109.4167 0002680 240.9203 119.1688 14.98325895 45048,6950.206,96.107,573.933,570.208,0.0
55774.0,STARLINK-5812,PAYLOAD,2023-12-20 11:41:19,14.98328782,0.0002874,70.0007,107.2272,255.9896,104.0944,-9.2224e-05,-1.193e-05,0.0,0 STARLINK-5812,1 55774U 23028AK  23354.48702719 -.00001193  00000-0 -92224-4 0  9997,2 55774  70.0007 107.2272 0002874 255.9896 104.0944 14.98328782 45171,6950.197,96.107,574.059,570.064,0.0
55774.0,STARLINK-5812,PAYLOAD,2023-12-20 13:17:27,14.98328799,0.0002887,70.0007,107.0587,258.516,101.5675,-7.9988e-05,-1.047e-05,0.0,0 STARLINK-5812,1 55774U 23028AK  23354.55378700 -.00001047  00000-0 -79988-4 0  9994,2 55774  70.0007 107.0587 0002887 258.5160 101.5675 14.98328799 45187,6950.197,96.107,574.068,570.055,0.0
55774.0,STARLINK-5812,PAYLOAD,2023-12-20 18:05:51,14.98331129,0.0002887,70.0006,106.5534,260.1827,99.9007,-4.4309e-05,-6.22e-06,0.0,0 STARLINK-5812,1 55774U 23028AK  23354.75406459 -.00000622  00000-0 -44309-4 0  9996,2 55774  70.0006 106.5534 0002887 260.1827  99.9007 14.98331129 45215,6950.189,96.107,574.061,570.048,0.0
55774.0,STARLINK-5812,PAYLOAD,2023-12-21 11:43:19,14.98326242,0.0002601,70.0007,104.7015,252.1144,107.9731,9.864e-05,1.084e-05,0.0,0 STARLINK-5812,1 55774U 23028AK  23355.48842383  .00001084  00000-0  98640-4 0  9995,2 55774  70.0007 104.7015 0002601 252.1144 107.9731 14.98326242 45323,6950.205,96.107,573.877,570.262,0.0
55774.0,STARLINK-5812,PAYLOAD,2023-12-21 14:55:35,14.9832804,0.0002634,70.0008,104.3649,253.3404,106.7466,0.00010093,1.111e-05,0.0,0 STARLINK-5812,1 55774U 23028AK  23355.62194279  .00001111  00000-0  10093-3 0  9991,2 55774  70.0008 104.3649 0002634 253.3404 106.7466 14.98328040 45343,6950.199,96.107,573.895,570.233,0.0
55774.0,STARLINK-5812,PAYLOAD,2023-12-22 11:45:20,14.98328378,0.0002718,70.0009,102.1775,258.7679,101.3175,9.223e-06,1.7e-07,0.0,0 STARLINK-5812,1 55774U 23028AK  23356.48982557  .00000017  00000-0  92230-5 0  9999,2 55774  70.0009 102.1775 0002718 258.7679 101.3175 14.98328378 45472,6950.198,96.107,573.952,570.174,0.0
55774.0,STARLINK-5812,PAYLOAD,2023-12-22 13:21:29,14.98327723,0.0002696,70.001,102.0091,256.8266,103.2592,8.5307e-06,9e-08,0.0,0 STARLINK-5812,1 55774U 23028AK  23356.55658594  .00000009  00000-0  85307-5 0  9996,2 55774  70.0010 102.0091 0002696 256.8266 103.2592 14.98327723 45488,6950.2,96.107,573.939,570.191,0.0
